{"type": "FeatureCollection", "features": [ {"type": "Feature", "properties": {"norad_id": 43262, "name": "GAOFEN-1 04", "group": "resource", "lat": -32.782410173127815, "lon": 48.87558275835873, "alt_km": 646.685910520031, "timestamp": "2025-12-11T18:59:45.723955+00:00", "meta": {"OBJECT_NAME": "GAOFEN-1 04", "OBJECT_ID": "2018-031D", "EPOCH": "2025-12-11T07:45:37.149696", "MEAN_MOTION": 14.76444524, "ECCENTRICITY": 0.00011107, "INCLINATION": 98.0804, "RA_OF_ASC_NODE": 43.1577, "ARG_OF_PERICENTER": 56.7116, "MEAN_ANOMALY": 303.42, "EPHEMERIS_TYPE": 0, "CLASSIFICATION_TYPE": "U", "NORAD_CAT_ID": 43262, "ELEMENT_SET_NO": 999, "REV_AT_EPOCH": 41496, "BSTAR": 0.00022301836, "MEAN_MOTION_DOT": 1.5e-05, "MEAN_MOTION_DDOT": 0}, "tle": {"line1": "1 43262U 18031D   25345.32334664  .00001500  00000+0  22302-3 0  9997", "line2": "2 43262  98.0804  43.1577 0001110  56.7116 303.4200 14.76444524414961"}}, "geometry": {"type": "Point", "coordinates": [48.87558275835873, -32.782410173127815]}}, {"type": "Feature", "properties": {"norad_id": 43437, "name": "SENTINEL-3B", "group": "resource", "lat": -56.03980695247864, "lon": 64.01719535701005, "alt_km": 810.7162231996635, "timestamp": "2025-12-11T18:59:45.723965+00:00", "meta": {"OBJECT_NAME": "SENTINEL-3B", "OBJECT_ID": "2018-039A", "EPOCH": "2025-12-11T04:06:53.766432", "MEAN_MOTION": 14.26741926, "ECCENTRICITY": 0.0001555, "INCLINATION": 98.6269, "RA_OF_ASC_NODE": 50.3791, "ARG_OF_PERICENTER": 104.5822, "MEAN_ANOMALY": 255.5531, "EPHEMERIS_TYPE": 0, "CLASSIFICATION_TYPE": "U", "NORAD_CAT_ID": 43437, "ELEMENT_SET_NO": 999, "REV_AT_EPOCH": 39731, "BSTAR": 0.00011127868, "MEAN_MOTION_DOT": 2.26e-06, "MEAN_MOTION_DDOT": 0}, "tle": {"line1": "1 43437U 18039A   25345.17145563  .00000226  00000+0  11128-3 0  9998", "line2": "2 43437  98.6269  50.3791 0001555 104.5822 255.5531 14.26741926397317"}}, "geometry": {"type": "Point", "coordinates": [64.01719535701005, -56.03980695247864]}}, {"type": "Feature", "properties": {"norad_id": 43461, "name": "GAOFEN-5 01", "group": "resource", "lat": 2.511728876942572, "lon": 129.11489725554316, "alt_km": 695.2532074148303, "timestamp": "2025-12-11T18:59:45.723976+00:00", "meta": {"OBJECT_NAME": "GAOFEN-5 01", "OBJECT_ID": "2018-043A", "EPOCH": "2025-12-10T15:52:37.152768", "MEAN_MOTION": 14.6040665, "ECCENTRICITY": 0.00010926, "INCLINATION": 98.4324, "RA_OF_ASC_NODE": 307.5925, "ARG_OF_PERICENTER": 348.2801, "MEAN_ANOMALY": 11.8373, "EPHEMERIS_TYPE": 0, "CLASSIFICATION_TYPE": "U", "NORAD_CAT_ID": 43461, "ELEMENT_SET_NO": 999, "REV_AT_EPOCH": 40417, "BSTAR": 0.00018403532, "MEAN_MOTION_DOT": 8.42e-06, "MEAN_MOTION_DDOT": 0}, "tle": {"line1": "1 43461U 18043A   25344.66154112  .00000842  00000+0  18404-3 0  9991", "line2": "2 43461  98.4324 307.5925 0001092 348.2801  11.8373 14.60406650404170"}}, "geometry": {"type": "Point", "coordinates": [129.11489725554316, 2.511728876942572]}}, {"type": "Feature", "properties": {"norad_id": 43484, "name": "GAOFEN-6", "group": "resource", "lat": 61.06279425800354, "lon": -115.54944698527063, "alt_km": 628.4662225881084, "timestamp": "2025-12-11T18:59:45.723986+00:00", "meta": {"OBJECT_NAME": "GAOFEN-6", "OBJECT_ID": "2018-048A", "EPOCH": "2025-12-11T07:04:49.495584", "MEAN_MOTION": 14.76563065, "ECCENTRICITY": 0.00132677, "INCLINATION": 97.8029, "RA_OF_ASC_NODE": 49.6102, "ARG_OF_PERICENTER": 67.9311, "MEAN_ANOMALY": 292.3307, "EPHEMERIS_TYPE": 0, "CLASSIFICATION_TYPE": "U", "NORAD_CAT_ID": 43484, "ELEMENT_SET_NO": 999, "REV_AT_EPOCH": 40566, "BSTAR": 0.00024026567, "MEAN_MOTION_DOT": 1.629e-05, "MEAN_MOTION_DDOT": 0}, "tle": {"line1": "1 43484U 18048A   25345.29501731  .00001629  00000+0  24027-3 0  9996", "line2": "2 43484  97.8029  49.6102 0013267  67.9311 292.3307 14.76563065405668"}}, "geometry": {"type": "Point", "coordinates": [-115.54944698527063, 61.06279425800354]}}, {"type": "Feature", "properties": {"norad_id": 43585, "name": "GAOFEN-11 01", "group": "resource", "lat": 36.449091942156116, "lon": 43.40908376937322, "alt_km": 416.0435649869669, "timestamp": "2025-12-11T18:59:45.723998+00:00", "meta": {"OBJECT_NAME": "GAOFEN-11 01", "OBJECT_ID": "2018-063A", "EPOCH": "2025-12-11T06:26:09.419712", "MEAN_MOTION": 15.4915643, "ECCENTRICITY": 0.00044389, "INCLINATION": 97.1556, "RA_OF_ASC_NODE": 48.2143, "ARG_OF_PERICENTER": 320.6071, "MEAN_ANOMALY": 39.4858, "EPHEMERIS_TYPE": 0, "CLASSIFICATION_TYPE": "U", "NORAD_CAT_ID": 43585, "ELEMENT_SET_NO": 999, "REV_AT_EPOCH": 41119, "BSTAR": 0.00050588116, "MEAN_MOTION_DOT": 0.00027498, "MEAN_MOTION_DDOT": 0}, "tle": {"line1": "1 43585U 18063A   25345.26816458  .00027498  00000+0  50588-3 0  9990", "line2": "2 43585  97.1556  48.2143 0004438 320.6071  39.4858 15.49156430411191"}}, "geometry": {"type": "Point", "coordinates": [43.40908376937322, 36.449091942156116]}}, {"type": "Feature", "properties": {"norad_id": 43613, "name": "ICESAT-2", "group": "resource", "lat": -24.551300506422844, "lon": 59.56477841884831, "alt_km": 485.4137161305507, "timestamp": "2025-12-11T18:59:45.724009+00:00", "meta": {"OBJECT_NAME": "ICESAT-2", "OBJECT_ID": "2018-070A", "EPOCH": "2025-12-11T05:31:58.704384", "MEAN_MOTION": 15.28336638, "ECCENTRICITY": 0.00025939, "INCLINATION": 92.0043, "RA_OF_ASC_NODE": 240.3301, "ARG_OF_PERICENTER": 152.7163, "MEAN_ANOMALY": 207.4223, "EPHEMERIS_TYPE": 0, "CLASSIFICATION_TYPE": "U", "NORAD_CAT_ID": 43613, "ELEMENT_SET_NO": 999, "REV_AT_EPOCH": 40375, "BSTAR": 0.00080516394, "MEAN_MOTION_DOT": 0.00022244, "MEAN_MOTION_DDOT": 0}, "tle": {"line1": "1 43613U 18070A   25345.23054056  .00022244  00000+0  80516-3 0  9993", "line2": "2 43613  92.0043 240.3301 0002593 152.7163 207.4223 15.28336638403758"}}, "geometry": {"type": "Point", "coordinates": [59.56477841884831, -24.551300506422844]}}, {"type": "Feature", "properties": {"norad_id": 43719, "name": "HYSIS", "group": "resource", "lat": 33.5177311461306, "lon": -125.87539736587767, "alt_km": 631.5093609791202, "timestamp": "2025-12-11T18:59:45.724020+00:00", "meta": {"OBJECT_NAME": "HYSIS", "OBJECT_ID": "2018-096A", "EPOCH": "2025-12-11T06:58:09.615648", "MEAN_MOTION": 14.78640996, "ECCENTRICITY": 0.00014827, "INCLINATION": 98.0093, "RA_OF_ASC_NODE": 48.275, "ARG_OF_PERICENTER": 59.1716, "MEAN_ANOMALY": 300.964, "EPHEMERIS_TYPE": 0, "CLASSIFICATION_TYPE": "U", "NORAD_CAT_ID": 43719, "ELEMENT_SET_NO": 999, "REV_AT_EPOCH": 37965, "BSTAR": 0.00039747608, "MEAN_MOTION_DOT": 2.86e-05, "MEAN_MOTION_DDOT": 0}, "tle": {"line1": "1 43719U 18096A   25345.29038907  .00002860  00000+0  39748-3 0  9994", "line2": "2 43719  98.0093  48.2750 0001482  59.1716 300.9640 14.78640996379651"}}, "geometry": {"type": "Point", "coordinates": [-125.87539736587767, 33.5177311461306]}}, {"type": "Feature", "properties": {"norad_id": 43783, "name": "KAZSTSAT", "group": "resource", "lat": -47.94053650492335, "lon": 29.362755987914714, "alt_km": 571.955921605093, "timestamp": "2025-12-11T18:59:45.724030+00:00", "meta": {"OBJECT_NAME": "KAZSTSAT", "OBJECT_ID": "2018-099AB", "EPOCH": "2025-12-11T01:35:34.662624", "MEAN_MOTION": 14.99344949, "ECCENTRICITY": 0.00059901, "INCLINATION": 97.4559, "RA_OF_ASC_NODE": 20.3232, "ARG_OF_PERICENTER": 337.2682, "MEAN_ANOMALY": 22.8276, "EPHEMERIS_TYPE": 0, "CLASSIFICATION_TYPE": "U", "NORAD_CAT_ID": 43783, "ELEMENT_SET_NO": 999, "REV_AT_EPOCH": 38311, "BSTAR": 0.00018724349, "MEAN_MOTION_DOT": 2.234e-05, "MEAN_MOTION_DDOT": 0}, "tle": {"line1": "1 43783U 18099AB  25345.06637341  .00002234  00000+0  18724-3 0  9996", "line2": "2 43783  97.4559  20.3232 0005990 337.2682  22.8276 14.99344949383111"}}, "geometry": {"type": "Point", "coordinates": [29.362755987914714, -47.94053650492335]}}, {"type": "Feature", "properties": {"norad_id": 43831, "name": "SAUDISAT 5A", "group": "resource", "lat": -81.28704748468591, "lon": 103.19944538455972, "alt_km": 503.9610278057662, "timestamp": "2025-12-11T18:59:45.724041+00:00", "meta": {"OBJECT_NAME": "SAUDISAT 5A", "OBJECT_ID": "2018-102A", "EPOCH": "2025-12-11T06:46:37.267392", "MEAN_MOTION": 15.25641937, "ECCENTRICITY": 0.00117995, "INCLINATION": 97.3352, "RA_OF_ASC_NODE": 45.5012, "ARG_OF_PERICENTER": 80.7426, "MEAN_ANOMALY": 279.5147, "EPHEMERIS_TYPE": 0, "CLASSIFICATION_TYPE": "U", "NORAD_CAT_ID": 43831, "ELEMENT_SET_NO": 999, "REV_AT_EPOCH": 38700, "BSTAR": 0.00083946451, "MEAN_MOTION_DOT": 0.00021364, "MEAN_MOTION_DDOT": 0}, "tle": {"line1": "1 43831U 18102A   25345.28237578  .00021364  00000+0  83946-3 0  9990", "line2": "2 43831  97.3352  45.5012 0011799  80.7426 279.5147 15.25641937387007"}}, "geometry": {"type": "Point", "coordinates": [103.19944538455972, -81.28704748468591]}}, {"type": "Feature", "properties": {"norad_id": 43833, "name": "SAUDISAT 5B", "group": "resource", "lat": -34.123981182960705, "lon": 53.75193877559201, "alt_km": 497.7084530401971, "timestamp": "2025-12-11T18:59:45.724052+00:00", "meta": {"OBJECT_NAME": "SAUDISAT 5B", "OBJECT_ID": "2018-102C", "EPOCH": "2025-12-11T06:33:24.372000", "MEAN_MOTION": 15.25993936, "ECCENTRICITY": 0.00124788, "INCLINATION": 97.3446, "RA_OF_ASC_NODE": 48.2282, "ARG_OF_PERICENTER": 83.0053, "MEAN_ANOMALY": 277.2604, "EPHEMERIS_TYPE": 0, "CLASSIFICATION_TYPE": "U", "NORAD_CAT_ID": 43833, "ELEMENT_SET_NO": 999, "REV_AT_EPOCH": 38711, "BSTAR": 0.00082798963, "MEAN_MOTION_DOT": 0.000213, "MEAN_MOTION_DDOT": 0}, "tle": {"line1": "1 43833U 18102C   25345.27319875  .00021300  00000+0  82799-3 0  9997", "line2": "2 43833  97.3446  48.2282 0012478  83.0053 277.2604 15.25993936387113"}}, "geometry": {"type": "Point", "coordinates": [53.75193877559201, -34.123981182960705]}}]}